CYGNUS NG-23            
1 65616U 25208A   25362.21118694  .00015781  00000+0  28493-3 0  9991
2 65616  51.6320  65.8529 0003260 313.9289  46.1430 15.49897702   228
DRAGONFLY               
1 65729U 98067XH  25362.16083023  .00254261  00000+0  14472-2 0  9999
2 65729  51.6253  56.4851 0008397   7.7106 352.4022 15.77632435 15591
1998-067XK              
1 65731U 98067XK  25362.16523627  .00132851  00000+0  11210-2 0  9998
2 65731  51.6292  58.7994 0005157 341.3098  18.7709 15.68843370 15561
RSP-03                  
1 65732U 98067XL  25362.26397242  .00183821  00000+0  13015-2 0  9990
2 65732  51.6262  57.1913 0006222 349.2936  10.7929 15.72854186 15608
GHS-01                  
1 65733U 98067XM  25361.88679635  .00344717  00000+0  15714-2 0  9998
2 65733  51.6276  56.9127 0009580  10.1535 349.9659 15.82243780 15573
YOTSUBA-KULOVER         
1 65941U 98067XN  25362.27430762  .00088736  00000+0  10065-2 0  9999
2 65941  51.6291  61.7791 0002870  15.2085 344.8995 15.61614363 12281
BOTAN                   
1 65942U 98067XP  25362.17620621  .00146908  00000+0  13733-2 0  9995
2 65942  51.6280  61.1216 0003798 358.1911   1.9070 15.66277440 12284
E-KAGAKU-1              
1 65943U 98067XQ  25362.21036714  .00090321  00000+0  10238-2 0  9999
2 65943  51.6301  62.1071 0001617 353.2264   6.8708 15.61625381 12271
HRC MONOBLOCK CAMERA    
1 66052U 98067XR  25361.88555450  .00038762  00000+0  56720-3 0  9994
2 66052  51.6303  65.9298 0001807 261.5744  98.5042 15.55204253 11195
HTV-X1                  
1 66174U 25241A   25362.21118694  .00015781  00000+0  28493-3 0  9998
2 66174  51.6320  65.8529 0003260 313.9289  46.1430 15.49897702   510
SZ-21 MODULE            
1 66515U 25246C   25362.19495186  .00035208  00000+0  37385-3 0  9999
2 66515  41.4762 281.7105 0003889 344.6689  15.4033 15.63334687  6863
SHENZHOU-22             
1 66645U 25272A   25362.21234419  .00022860  00000+0  27982-3 0  9997
2 66645  41.4674 282.7308 0008952 165.5438 194.5658 15.59793935265985
