CCSDS_OMM_VERS = 2.0
CREATION_DATE  = 
ORIGINATOR     = 

OBJECT_NAME    = CYGNUS NG-23
OBJECT_ID      = 2025-208A
CENTER_NAME    = EARTH
REF_FRAME      = TEME
TIME_SYSTEM    = UTC
MEAN_ELEMENT_THEORY = SGP/SGP4

EPOCH          = 2025-12-28T05:04:06.551616
MEAN_MOTION    = 15.49897702
ECCENTRICITY   = .000326
INCLINATION    = 51.6320
RA_OF_ASC_NODE = 65.8529
ARG_OF_PERICENTER = 313.9289
MEAN_ANOMALY   = 46.1430

EPHEMERIS_TYPE = 0
CLASSIFICATION_TYPE = U
NORAD_CAT_ID   = 65616
ELEMENT_SET_NO = 999
REV_AT_EPOCH   = 22
BSTAR          = .28493376E-3
MEAN_MOTION_DOT = .15781E-3
MEAN_MOTION_DDOT = 0

CCSDS_OMM_VERS = 2.0
CREATION_DATE  = 
ORIGINATOR     = 

OBJECT_NAME    = DRAGONFLY
OBJECT_ID      = 1998-067XH
CENTER_NAME    = EARTH
REF_FRAME      = TEME
TIME_SYSTEM    = UTC
MEAN_ELEMENT_THEORY = SGP/SGP4

EPOCH          = 2025-12-28T03:51:35.731872
MEAN_MOTION    = 15.77632435
ECCENTRICITY   = .00083971
INCLINATION    = 51.6253
RA_OF_ASC_NODE = 56.4851
ARG_OF_PERICENTER = 7.7106
MEAN_ANOMALY   = 352.4022

EPHEMERIS_TYPE = 0
CLASSIFICATION_TYPE = U
NORAD_CAT_ID   = 65729
ELEMENT_SET_NO = 999
REV_AT_EPOCH   = 1559
BSTAR          = .14471821E-2
MEAN_MOTION_DOT = .254261E-2
MEAN_MOTION_DDOT = 0

CCSDS_OMM_VERS = 2.0
CREATION_DATE  = 
ORIGINATOR     = 

OBJECT_NAME    = 1998-067XK
OBJECT_ID      = 1998-067XK
CENTER_NAME    = EARTH
REF_FRAME      = TEME
TIME_SYSTEM    = UTC
MEAN_ELEMENT_THEORY = SGP/SGP4

EPOCH          = 2025-12-28T03:57:56.413728
MEAN_MOTION    = 15.68843370
ECCENTRICITY   = .0005157
INCLINATION    = 51.6292
RA_OF_ASC_NODE = 58.7994
ARG_OF_PERICENTER = 341.3098
MEAN_ANOMALY   = 18.7709

EPHEMERIS_TYPE = 0
CLASSIFICATION_TYPE = U
NORAD_CAT_ID   = 65731
ELEMENT_SET_NO = 999
REV_AT_EPOCH   = 1556
BSTAR          = .11210252E-2
MEAN_MOTION_DOT = .132851E-2
MEAN_MOTION_DDOT = 0

CCSDS_OMM_VERS = 2.0
CREATION_DATE  = 
ORIGINATOR     = 

OBJECT_NAME    = RSP-03
OBJECT_ID      = 1998-067XL
CENTER_NAME    = EARTH
REF_FRAME      = TEME
TIME_SYSTEM    = UTC
MEAN_ELEMENT_THEORY = SGP/SGP4

EPOCH          = 2025-12-28T06:20:07.217088
MEAN_MOTION    = 15.72854186
ECCENTRICITY   = .0006222
INCLINATION    = 51.6262
RA_OF_ASC_NODE = 57.1913
ARG_OF_PERICENTER = 349.2936
MEAN_ANOMALY   = 10.7929

EPHEMERIS_TYPE = 0
CLASSIFICATION_TYPE = U
NORAD_CAT_ID   = 65732
ELEMENT_SET_NO = 999
REV_AT_EPOCH   = 1560
BSTAR          = .13015117E-2
MEAN_MOTION_DOT = .183821E-2
MEAN_MOTION_DDOT = 0

CCSDS_OMM_VERS = 2.0
CREATION_DATE  = 
ORIGINATOR     = 

OBJECT_NAME    = GHS-01
OBJECT_ID      = 1998-067XM
CENTER_NAME    = EARTH
REF_FRAME      = TEME
TIME_SYSTEM    = UTC
MEAN_ELEMENT_THEORY = SGP/SGP4

EPOCH          = 2025-12-27T21:16:59.204640
MEAN_MOTION    = 15.82243780
ECCENTRICITY   = .000958
INCLINATION    = 51.6276
RA_OF_ASC_NODE = 56.9127
ARG_OF_PERICENTER = 10.1535
MEAN_ANOMALY   = 349.9659

EPHEMERIS_TYPE = 0
CLASSIFICATION_TYPE = U
NORAD_CAT_ID   = 65733
ELEMENT_SET_NO = 999
REV_AT_EPOCH   = 1557
BSTAR          = .15714E-2
MEAN_MOTION_DOT = .344717E-2
MEAN_MOTION_DDOT = 0

CCSDS_OMM_VERS = 2.0
CREATION_DATE  = 
ORIGINATOR     = 

OBJECT_NAME    = YOTSUBA-KULOVER
OBJECT_ID      = 1998-067XN
CENTER_NAME    = EARTH
REF_FRAME      = TEME
TIME_SYSTEM    = UTC
MEAN_ELEMENT_THEORY = SGP/SGP4

EPOCH          = 2025-12-28T06:35:00.178368
MEAN_MOTION    = 15.61614363
ECCENTRICITY   = .000287
INCLINATION    = 51.6291
RA_OF_ASC_NODE = 61.7791
ARG_OF_PERICENTER = 15.2085
MEAN_ANOMALY   = 344.8995

EPHEMERIS_TYPE = 0
CLASSIFICATION_TYPE = U
NORAD_CAT_ID   = 65941
ELEMENT_SET_NO = 999
REV_AT_EPOCH   = 1228
BSTAR          = .10064937E-2
MEAN_MOTION_DOT = .88736E-3
MEAN_MOTION_DDOT = 0

CCSDS_OMM_VERS = 2.0
CREATION_DATE  = 
ORIGINATOR     = 

OBJECT_NAME    = BOTAN
OBJECT_ID      = 1998-067XP
CENTER_NAME    = EARTH
REF_FRAME      = TEME
TIME_SYSTEM    = UTC
MEAN_ELEMENT_THEORY = SGP/SGP4

EPOCH          = 2025-12-28T04:13:44.216544
MEAN_MOTION    = 15.66277440
ECCENTRICITY   = .00037981
INCLINATION    = 51.6280
RA_OF_ASC_NODE = 61.1216
ARG_OF_PERICENTER = 358.1911
MEAN_ANOMALY   = 1.9070

EPHEMERIS_TYPE = 0
CLASSIFICATION_TYPE = U
NORAD_CAT_ID   = 65942
ELEMENT_SET_NO = 999
REV_AT_EPOCH   = 1228
BSTAR          = .13733293E-2
MEAN_MOTION_DOT = .146908E-2
MEAN_MOTION_DDOT = 0

CCSDS_OMM_VERS = 2.0
CREATION_DATE  = 
ORIGINATOR     = 

OBJECT_NAME    = E-KAGAKU-1
OBJECT_ID      = 1998-067XQ
CENTER_NAME    = EARTH
REF_FRAME      = TEME
TIME_SYSTEM    = UTC
MEAN_ELEMENT_THEORY = SGP/SGP4

EPOCH          = 2025-12-28T05:02:55.720896
MEAN_MOTION    = 15.61625381
ECCENTRICITY   = .00016177
INCLINATION    = 51.6301
RA_OF_ASC_NODE = 62.1071
ARG_OF_PERICENTER = 353.2264
MEAN_ANOMALY   = 6.8708

EPHEMERIS_TYPE = 0
CLASSIFICATION_TYPE = U
NORAD_CAT_ID   = 65943
ELEMENT_SET_NO = 999
REV_AT_EPOCH   = 1227
BSTAR          = .10238151E-2
MEAN_MOTION_DOT = .90321E-3
MEAN_MOTION_DDOT = 0

CCSDS_OMM_VERS = 2.0
CREATION_DATE  = 
ORIGINATOR     = 

OBJECT_NAME    = HRC MONOBLOCK CAMERA
OBJECT_ID      = 1998-067XR
CENTER_NAME    = EARTH
REF_FRAME      = TEME
TIME_SYSTEM    = UTC
MEAN_ELEMENT_THEORY = SGP/SGP4

EPOCH          = 2025-12-27T21:15:11.908800
MEAN_MOTION    = 15.55204253
ECCENTRICITY   = .0001807
INCLINATION    = 51.6303
RA_OF_ASC_NODE = 65.9298
ARG_OF_PERICENTER = 261.5744
MEAN_ANOMALY   = 98.5042

EPHEMERIS_TYPE = 0
CLASSIFICATION_TYPE = U
NORAD_CAT_ID   = 66052
ELEMENT_SET_NO = 999
REV_AT_EPOCH   = 1119
BSTAR          = .5672E-3
MEAN_MOTION_DOT = .38762E-3
MEAN_MOTION_DDOT = 0

CCSDS_OMM_VERS = 2.0
CREATION_DATE  = 
ORIGINATOR     = 

OBJECT_NAME    = HTV-X1
OBJECT_ID      = 2025-241A
CENTER_NAME    = EARTH
REF_FRAME      = TEME
TIME_SYSTEM    = UTC
MEAN_ELEMENT_THEORY = SGP/SGP4

EPOCH          = 2025-12-28T05:04:06.551616
MEAN_MOTION    = 15.49897702
ECCENTRICITY   = .000326
INCLINATION    = 51.6320
RA_OF_ASC_NODE = 65.8529
ARG_OF_PERICENTER = 313.9289
MEAN_ANOMALY   = 46.1430

EPHEMERIS_TYPE = 0
CLASSIFICATION_TYPE = U
NORAD_CAT_ID   = 66174
ELEMENT_SET_NO = 999
REV_AT_EPOCH   = 51
BSTAR          = .28493376E-3
MEAN_MOTION_DOT = .15781E-3
MEAN_MOTION_DDOT = 0

CCSDS_OMM_VERS = 2.0
CREATION_DATE  = 
ORIGINATOR     = 

OBJECT_NAME    = SZ-21 MODULE
OBJECT_ID      = 2025-246C
CENTER_NAME    = EARTH
REF_FRAME      = TEME
TIME_SYSTEM    = UTC
MEAN_ELEMENT_THEORY = SGP/SGP4

EPOCH          = 2025-12-28T04:40:43.840704
MEAN_MOTION    = 15.63334687
ECCENTRICITY   = .0003889
INCLINATION    = 41.4762
RA_OF_ASC_NODE = 281.7105
ARG_OF_PERICENTER = 344.6689
MEAN_ANOMALY   = 15.4033

EPHEMERIS_TYPE = 0
CLASSIFICATION_TYPE = U
NORAD_CAT_ID   = 66515
ELEMENT_SET_NO = 999
REV_AT_EPOCH   = 686
BSTAR          = .37385278E-3
MEAN_MOTION_DOT = .35208E-3
MEAN_MOTION_DDOT = 0

CCSDS_OMM_VERS = 2.0
CREATION_DATE  = 
ORIGINATOR     = 

OBJECT_NAME    = SHENZHOU-22
OBJECT_ID      = 2025-272A
CENTER_NAME    = EARTH
REF_FRAME      = TEME
TIME_SYSTEM    = UTC
MEAN_ELEMENT_THEORY = SGP/SGP4

EPOCH          = 2025-12-28T05:05:46.538016
MEAN_MOTION    = 15.59793935
ECCENTRICITY   = .00089524
INCLINATION    = 41.4674
RA_OF_ASC_NODE = 282.7308
ARG_OF_PERICENTER = 165.5438
MEAN_ANOMALY   = 194.5658

EPHEMERIS_TYPE = 0
CLASSIFICATION_TYPE = U
NORAD_CAT_ID   = 66645
ELEMENT_SET_NO = 999
REV_AT_EPOCH   = 26598
BSTAR          = .27982381E-3
MEAN_MOTION_DOT = .2286E-3
MEAN_MOTION_DDOT = 0

